     2.100          NAVIGATION                              RINEX VERSION / TYPE
fic2rin                                 10/19/2008 04:49:23 PGM / RUN BY / DATE
                                                            END OF HEADER
10 08 10 18 22  0  0.0 -.619702041149D-05 -.454747350886D-12  .000000000000D+00
     .730000000000D+02  .108000000000D+03  .442196990708D-08 -.138196058043D+01
     .567920506001D-05  .808316294570D-02  .518932938576D-05  .515372520828D+04
     .597600000000D+06  .137835741043D-06 -.159956388522D+01 -.726431608200D-07
     .961303921481D+00  .279968750000D+03  .558144601009D+00 -.808962267954D-08
     .607168148133D-10  .100000000000D+01  .150100000000D+04  .000000000000D+00
     .340000000000D+01  .000000000000D+00 -.232830643654D-08  .730000000000D+02
     .590406000000D+06  .400000000000D+01
11 08 10 18 22  0  0.0  .175577588379D-04 -.795807864051D-12  .000000000000D+00
     .540000000000D+02  .188125000000D+02  .622883088438D-08  .201226426670D+01
     .101700425148D-05  .869716587476D-02  .973977148533D-05  .515365310478D+04
     .597600000000D+06 -.271946191788D-06 -.287152717104D+01 -.521540641785D-07
     .890863367052D+00  .154875000000D+03  .630469851817D+00 -.867000399761D-08
    -.451447376024D-09  .100000000000D+01  .150100000000D+04  .000000000000D+00
     .240000000000D+01  .000000000000D+00 -.121071934700D-07  .540000000000D+02
     .590406000000D+06  .400000000000D+01
12 08 10 18 22  0  0.0 -.345711130649D-03  .204636307899D-11  .000000000000D+00
     .800000000000D+02 -.161562500000D+02  .441982696068D-08  .242050723189D+01
    -.105798244476D-05  .297706061974D-02  .889971852303D-05  .515380176735D+04
     .597600000000D+06 -.484287738800D-07  .152015186717D+01  .298023223877D-07
     .964637882525D+00  .209625000000D+03 -.844967887687D+00 -.778532429001D-08
     .551808699333D-09  .100000000000D+01  .150100000000D+04  .000000000000D+00
     .240000000000D+01  .000000000000D+00 -.116415321827D-07  .800000000000D+02
     .590406000000D+06  .400000000000D+01
13 08 10 18 22  0  0.0  .274499878287D-03  .102318153949D-11  .000000000000D+00
     .520000000000D+02 -.281875000000D+02  .389837666875D-08 -.170632272100D+01
    -.151433050632D-05  .362105737440D-02  .223331153393D-05  .515356370926D+04
     .597600000000D+06  .447034835815D-07 -.525866848191D+00  .154599547386D-06
     .995491114475D+00  .354875000000D+03  .155365212504D+01 -.800640492747D-08
    -.203222750758D-09  .100000000000D+01  .150100000000D+04  .000000000000D+00
     .240000000000D+01  .000000000000D+00 -.111758708954D-07  .520000000000D+02
     .590406000000D+06  .400000000000D+01
14 08 10 18 22  0  0.0 -.205759890378D-03  .477484718431D-11  .000000000000D+00
     .530000000000D+02 -.413125000000D+02  .398695178683D-08 -.199078638079D+01
    -.204704701900D-05  .433078070637D-02  .142306089401D-05  .515374593353D+04
     .597600000000D+06  .260770320892D-07 -.544013014246D+00 -.894069671631D-07
     .989130371536D+00  .370062500000D+03 -.216165369394D+01 -.806890753096D-08
    -.163935399996D-09  .100000000000D+01  .150100000000D+04  .000000000000D+00
     .240000000000D+01  .000000000000D+00 -.931322574615D-08  .530000000000D+02
     .590406000000D+06  .400000000000D+01
15 08 10 18 22  0  0.0 -.196272972971D-03 -.636646291241D-11  .000000000000D+00
     .620000000000D+02 -.310312500000D+02  .471626788006D-08 -.116861357582D+01
    -.153109431267D-05  .104811764322D-02  .139325857162D-05  .515371506691D+04
     .597600000000D+06  .298023223877D-07 -.589565205254D+00  .279396772385D-07
     .957353027402D+00  .351312500000D+03 -.110898483157D+01 -.842927968476D-08
    -.138220043134D-09  .100000000000D+01  .150100000000D+04  .000000000000D+00
     .240000000000D+01  .000000000000D+00 -.977888703346D-08  .620000000000D+02
     .590406000000D+06  .400000000000D+01
16 08 10 18 22  0  0.0  .100658275187D-03 -.227373675443D-11  .000000000000D+00
     .660000000000D+02 -.324062500000D+02  .437911097898D-08 -.162160279289D+00
    -.168196856976D-05  .473411462735D-02  .854022800922D-05  .515368785858D+04
     .597600000000D+06  .502914190292D-07  .153676229840D+01 -.353902578354D-07
     .966230638973D+00  .215062500000D+03 -.385815815143D+00 -.789568602987D-08
     .588953103689D-09  .100000000000D+01  .150100000000D+04  .000000000000D+00
     .240000000000D+01  .000000000000D+00 -.977888703346D-08  .660000000000D+02
     .590406000000D+06  .400000000000D+01
17 08 10 18 22  0  0.0  .395677052438D-04  .341060513165D-12  .000000000000D+00
     .850000000000D+02 -.133750000000D+02  .493127683605D-08 -.129327816902D+01
    -.661239027977D-06  .388007098809D-02  .677816569805D-05  .515359360695D+04
     .597600000000D+06  .428408384323D-07  .257860692457D+01 -.186264514923D-08
     .959683094562D+00  .247656250000D+03 -.279319411067D+01 -.807355058150D-08
    -.364300888880D-10  .100000000000D+01  .150100000000D+04  .000000000000D+00
     .340000000000D+01  .000000000000D+00 -.102445483208D-07  .850000000000D+02
     .590406000000D+06  .400000000000D+01
18 08 10 18 22  0  0.0 -.122085679322D-03  .397903932026D-11  .000000000000D+00
     .310000000000D+02  .126968750000D+03  .497306429095D-08 -.920853388097D-02
     .665523111820D-05  .990781921428D-02  .486150383949D-05  .515373095322D+04
     .597600000000D+06  .670552253723D-07 -.159079458956D+01  .130385160446D-06
     .945377125038D+00  .278593750000D+03 -.245120969257D+01 -.853964142463D-08
    -.750031241812D-11  .100000000000D+01  .150100000000D+04  .000000000000D+00
     .240000000000D+01  .000000000000D+00 -.107102096081D-07  .310000000000D+02
     .590406000000D+06  .400000000000D+01
19 08 10 18 22  0  0.0  .356752425432D-04  .000000000000D+00  .000000000000D+00
     .610000000000D+02 -.126562500000D+02  .495949229705D-08 -.190151305873D+01
    -.700354576111D-06  .491749157663D-02  .736489892006D-05  .515373358345D+04
     .597600000000D+06 -.987201929092D-07  .263528567843D+01 -.484287738800D-07
     .957491293641D+00  .240125000000D+03 -.453749362471D+00 -.803783480808D-08
    -.785747015231D-10  .100000000000D+01  .150100000000D+04  .000000000000D+00
     .240000000000D+01  .000000000000D+00 -.144354999065D-07  .610000000000D+02
     .590406000000D+06  .400000000000D+01
22 08 10 18 22  0  0.0  .210278201848D-03 -.227373675443D-12  .000000000000D+00
     .100000000000D+02  .138250000000D+03  .487734601818D-08 -.120839974691D+01
     .707246363163D-05  .515639153309D-02  .462681055069D-05  .515367512512D+04
     .597600000000D+06 -.186264514923D-08 -.158461646415D+01  .115483999252D-06
     .943027239727D+00  .282843750000D+03 -.182194251595D+01 -.841320758672D-08
    -.132148361653D-10  .100000000000D+01  .150100000000D+04  .000000000000D+00
     .240000000000D+01  .000000000000D+00 -.176951289177D-07  .100000000000D+02
     .590406000000D+06  .400000000000D+01
23 08 10 18 22  0  0.0  .377162825316D-03  .125055521494D-11  .000000000000D+00
     .470000000000D+02 -.213750000000D+02  .441768401427D-08 -.255114001882D+01
    -.116601586342D-05  .585304293782D-02  .147335231304D-05  .515368601608D+04
     .597600000000D+06 -.158324837685D-06 -.572664665668D+00  .745058059692D-07
     .971193663166D+00  .357531250000D+03  .286072456702D+01 -.827427322812D-08
    -.163935399996D-09  .100000000000D+01  .150100000000D+04  .000000000000D+00
     .240000000000D+01  .000000000000D+00 -.200234353542D-07  .470000000000D+02
     .590406000000D+06  .400000000000D+01
24 08 10 18 22  0  0.0  .134225003421D-03  .295585778076D-11  .000000000000D+00
     .110000000000D+03  .581562500000D+02  .470733893670D-08 -.137995952062D+00
     .299513339996D-05  .740441982634D-02  .100564211607D-04  .515366232300D+04
     .597600000000D+06  .242143869400D-07 -.262100740634D+01 -.819563865662D-07
     .952338215909D+00  .182218750000D+03 -.689659755760D+00 -.804247785863D-08
    -.299298181256D-09  .100000000000D+01  .150100000000D+04  .000000000000D+00
     .340000000000D+01  .000000000000D+00 -.139698386192D-08  .110000000000D+03
     .590406000000D+06  .400000000000D+01
25 08 10 18 22  0  0.0 -.513005070388D-04  .350155460183D-10  .000000000000D+00
     .570000000000D+02 -.107250000000D+03  .422231873367D-08  .377136395325D+00
    -.567361712456D-05  .116017506225D-01  .745803117752D-05  .515369728851D+04
     .597600000000D+06 -.707805156708D-07  .374902627674D+00 -.184401869774D-06
     .967054403755D+00  .243281250000D+03 -.125019222382D+01 -.812712424163D-08
    -.403588239642D-10  .100000000000D+01  .150100000000D+04  .000000000000D+00
     .485000000000D+01  .000000000000D+00 -.745058059692D-08  .570000000000D+02
     .590406000000D+06  .400000000000D+01
26 08 10 18 22  0  0.0  .435439869761D-05  .488853402203D-11  .000000000000D+00
     .580000000000D+02 -.430000000000D+02  .379122934849D-08 -.301887377070D+01
    -.215321779251D-05  .192043727729D-01  .168196856976D-05  .515363627815D+04
     .597600000000D+06  .145286321640D-06 -.527630172109D+00 -.260770320892D-06
     .993396872636D+00  .361906250000D+03  .956958013188D+00 -.772032158238D-08
    -.150720563831D-09  .100000000000D+01  .150100000000D+04  .000000000000D+00
     .240000000000D+01  .000000000000D+00 -.605359673500D-08  .580000000000D+02
     .590406000000D+06  .400000000000D+01
27 08 10 18 22  0  0.0  .226124189794D-03  .284217094304D-11  .000000000000D+00
     .260000000000D+02 -.962812500000D+02  .415838749925D-08  .330137444167D+00
    -.498257577419D-05  .212571501033D-01  .762194395065D-05  .515371880722D+04
     .597600000000D+06 -.372529029846D-06  .410208797929D+00 -.108033418655D-06
     .971662645444D+00  .246250000000D+03 -.168107531944D+01 -.820355599675D-08
    -.771460705864D-10  .100000000000D+01  .150100000000D+04  .000000000000D+00
     .240000000000D+01  .000000000000D+00 -.419095158577D-08  .260000000000D+02
     .590406000000D+06  .400000000000D+01
